{"type": "FeatureCollection", "features": [ {"type": "Feature", "properties": {"norad_id": 28659, "name": "DIRECTV 8", "group": "intelsat", "lat": -0.04403860373733132, "lon": -111.59829616491331, "alt_km": 35772.61449955396, "timestamp": "2025-12-05T19:30:25.234823+00:00", "meta": {"OBJECT_NAME": "DIRECTV 8", "OBJECT_ID": "2005-019A", "EPOCH": "2025-12-05T06:16:53.940288", "MEAN_MOTION": 1.00270759, "ECCENTRICITY": 0.00032547, "INCLINATION": 0.0184, "RA_OF_ASC_NODE": 330.5151, "ARG_OF_PERICENTER": 283.124, "MEAN_ANOMALY": 155.8596, "EPHEMERIS_TYPE": 0, "CLASSIFICATION_TYPE": "U", "NORAD_CAT_ID": 28659, "ELEMENT_SET_NO": 999, "REV_AT_EPOCH": 7512, "BSTAR": 0, "MEAN_MOTION_DOT": 1.3e-07, "MEAN_MOTION_DDOT": 0}, "tle": {"line1": "1 28659U 05019A   25339.26173542  .00000013  00000+0  00000+0 0  9999", "line2": "2 28659   0.0184 330.5151 0003254 283.1240 155.8596  1.00270759 75122"}}, "geometry": {"type": "Point", "coordinates": [-111.59829616491331, -0.04403860373733132]}}, {"type": "Feature", "properties": {"norad_id": 28702, "name": "GALAXY 28 (G-28)", "group": "intelsat", "lat": -0.8611366686829277, "lon": -81.23834492872388, "alt_km": 35776.04431726029, "timestamp": "2025-12-05T19:30:25.234839+00:00", "meta": {"OBJECT_NAME": "GALAXY 28 (G-28)", "OBJECT_ID": "2005-022A", "EPOCH": "2025-12-05T03:00:12.788064", "MEAN_MOTION": 1.00272008, "ECCENTRICITY": 0.00026403, "INCLINATION": 2.7992, "RA_OF_ASC_NODE": 81.3702, "ARG_OF_PERICENTER": 172.2374, "MEAN_ANOMALY": 136.9404, "EPHEMERIS_TYPE": 0, "CLASSIFICATION_TYPE": "U", "NORAD_CAT_ID": 28702, "ELEMENT_SET_NO": 999, "REV_AT_EPOCH": 5002, "BSTAR": 0, "MEAN_MOTION_DOT": -1.76e-06, "MEAN_MOTION_DDOT": 0}, "tle": {"line1": "1 28702U 05022A   25339.12514801 -.00000176  00000+0  00000+0 0  9995", "line2": "2 28702   2.7992  81.3702 0002640 172.2374 136.9404  1.00272008 50023"}}, "geometry": {"type": "Point", "coordinates": [-81.23834492872388, -0.8611366686829277]}}, {"type": "Feature", "properties": {"norad_id": 29236, "name": "GALAXY 16 (G-16)", "group": "intelsat", "lat": -0.0065199090055155715, "lon": -91.54879037857698, "alt_km": 35773.81821333725, "timestamp": "2025-12-05T19:30:25.234854+00:00", "meta": {"OBJECT_NAME": "GALAXY 16 (G-16)", "OBJECT_ID": "2006-023A", "EPOCH": "2025-12-05T04:26:38.705280", "MEAN_MOTION": 1.00271125, "ECCENTRICITY": 0.00029875, "INCLINATION": 0.0254, "RA_OF_ASC_NODE": 207.5655, "ARG_OF_PERICENTER": 50.8444, "MEAN_ANOMALY": 143.4894, "EPHEMERIS_TYPE": 0, "CLASSIFICATION_TYPE": "U", "NORAD_CAT_ID": 29236, "ELEMENT_SET_NO": 999, "REV_AT_EPOCH": 7102, "BSTAR": 0, "MEAN_MOTION_DOT": -1.15e-06, "MEAN_MOTION_DDOT": 0}, "tle": {"line1": "1 29236U 06023A   25339.18517020 -.00000115  00000+0  00000+0 0  9995", "line2": "2 29236   0.0254 207.5655 0002987  50.8444 143.4894  1.00271125 71028"}}, "geometry": {"type": "Point", "coordinates": [-91.54879037857698, -0.0065199090055155715]}}, {"type": "Feature", "properties": {"norad_id": 29494, "name": "DIRECTV 9S", "group": "intelsat", "lat": -0.1248381064028245, "lon": -93.74605032290835, "alt_km": 35772.94083561501, "timestamp": "2025-12-05T19:30:25.234866+00:00", "meta": {"OBJECT_NAME": "DIRECTV 9S", "OBJECT_ID": "2006-043A", "EPOCH": "2025-12-05T04:26:38.705280", "MEAN_MOTION": 1.00270516, "ECCENTRICITY": 0.00032569, "INCLINATION": 1.9195, "RA_OF_ASC_NODE": 83.2899, "ARG_OF_PERICENTER": 171.4637, "MEAN_ANOMALY": 144.9464, "EPHEMERIS_TYPE": 0, "CLASSIFICATION_TYPE": "U", "NORAD_CAT_ID": 29494, "ELEMENT_SET_NO": 999, "REV_AT_EPOCH": 4943, "BSTAR": 0, "MEAN_MOTION_DOT": -1.02e-06, "MEAN_MOTION_DDOT": 0}, "tle": {"line1": "1 29494U 06043A   25339.18517020 -.00000102  00000+0  00000+0 0  9999", "line2": "2 29494   1.9195  83.2899 0003256 171.4637 144.9464  1.00270516 49433"}}, "geometry": {"type": "Point", "coordinates": [-93.74605032290835, -0.1248381064028245]}}, {"type": "Feature", "properties": {"norad_id": 31307, "name": "GALAXY 17 (G-17)", "group": "intelsat", "lat": -0.8758351745587275, "lon": -77.51643783207687, "alt_km": 35767.21967418209, "timestamp": "2025-12-05T19:30:25.234877+00:00", "meta": {"OBJECT_NAME": "GALAXY 17 (G-17)", "OBJECT_ID": "2007-016B", "EPOCH": "2025-12-05T03:01:12.691776", "MEAN_MOTION": 1.00270194, "ECCENTRICITY": 0.00061167, "INCLINATION": 2.4797, "RA_OF_ASC_NODE": 82.3719, "ARG_OF_PERICENTER": 158.6694, "MEAN_ANOMALY": 153.4482, "EPHEMERIS_TYPE": 0, "CLASSIFICATION_TYPE": "U", "NORAD_CAT_ID": 31307, "ELEMENT_SET_NO": 999, "REV_AT_EPOCH": 6785, "BSTAR": 0, "MEAN_MOTION_DOT": -1.95e-06, "MEAN_MOTION_DDOT": 0}, "tle": {"line1": "1 31307U 07016B   25339.12584134 -.00000195  00000+0  00000+0 0  9992", "line2": "2 31307   2.4797  82.3719 0006116 158.6694 153.4482  1.00270194 67855"}}, "geometry": {"type": "Point", "coordinates": [-77.51643783207687, -0.8758351745587275]}}, {"type": "Feature", "properties": {"norad_id": 31862, "name": "DIRECTV 10", "group": "intelsat", "lat": 0.0032637959054092787, "lon": -95.33438980523098, "alt_km": 35785.613284541985, "timestamp": "2025-12-05T19:30:25.234889+00:00", "meta": {"OBJECT_NAME": "DIRECTV 10", "OBJECT_ID": "2007-032A", "EPOCH": "2025-12-05T04:26:38.705280", "MEAN_MOTION": 1.0027169, "ECCENTRICITY": 2.866e-05, "INCLINATION": 0.0034, "RA_OF_ASC_NODE": 79.6557, "ARG_OF_PERICENTER": 119.3899, "MEAN_ANOMALY": 199.0698, "EPHEMERIS_TYPE": 0, "CLASSIFICATION_TYPE": "U", "NORAD_CAT_ID": 31862, "ELEMENT_SET_NO": 999, "REV_AT_EPOCH": 4364, "BSTAR": 0, "MEAN_MOTION_DOT": -9.1e-07, "MEAN_MOTION_DDOT": 0}, "tle": {"line1": "1 31862U 07032A   25339.18517020 -.00000091  00000+0  00000+0 0  9997", "line2": "2 31862   0.0034  79.6557 0000286 119.3899 199.0698  1.00271690 43649"}}, "geometry": {"type": "Point", "coordinates": [-95.33438980523098, 0.0032637959054092787]}}, {"type": "Feature", "properties": {"norad_id": 32253, "name": "INTELSAT 11 (IS-11)", "group": "intelsat", "lat": -0.16694657967362933, "lon": -96.31570736603796, "alt_km": 36095.69491684503, "timestamp": "2025-12-05T19:30:25.234901+00:00", "meta": {"OBJECT_NAME": "INTELSAT 11 (IS-11)", "OBJECT_ID": "2007-044B", "EPOCH": "2025-12-05T04:26:38.705280", "MEAN_MOTION": 0.99047129, "ECCENTRICITY": 0.00092968, "INCLINATION": 3.0593, "RA_OF_ASC_NODE": 81.0602, "ARG_OF_PERICENTER": 162.2668, "MEAN_ANOMALY": 156.5385, "EPHEMERIS_TYPE": 0, "CLASSIFICATION_TYPE": "U", "NORAD_CAT_ID": 32253, "ELEMENT_SET_NO": 999, "REV_AT_EPOCH": 6652, "BSTAR": 0, "MEAN_MOTION_DOT": 3.3e-07, "MEAN_MOTION_DDOT": 0}, "tle": {"line1": "1 32253U 07044B   25339.18517020  .00000033  00000+0  00000+0 0  9990", "line2": "2 32253   3.0593  81.0602 0009296 162.2668 156.5385  0.99047129 66524"}}, "geometry": {"type": "Point", "coordinates": [-96.31570736603796, -0.16694657967362933]}}, {"type": "Feature", "properties": {"norad_id": 32388, "name": "HORIZONS-2", "group": "intelsat", "lat": -1.0900645918010394, "lon": -66.31184091075826, "alt_km": 35767.41664725455, "timestamp": "2025-12-05T19:30:25.234913+00:00", "meta": {"OBJECT_NAME": "HORIZONS-2", "OBJECT_ID": "2007-063B", "EPOCH": "2025-12-05T06:07:38.867808", "MEAN_MOTION": 1.00271485, "ECCENTRICITY": 0.00050647, "INCLINATION": 2.1009, "RA_OF_ASC_NODE": 83.0433, "ARG_OF_PERICENTER": 182.767, "MEAN_ANOMALY": 186.6364, "EPHEMERIS_TYPE": 0, "CLASSIFICATION_TYPE": "U", "NORAD_CAT_ID": 32388, "ELEMENT_SET_NO": 999, "REV_AT_EPOCH": 6587, "BSTAR": 0, "MEAN_MOTION_DOT": -2.43e-06, "MEAN_MOTION_DDOT": 0}, "tle": {"line1": "1 32388U 07063B   25339.25531097 -.00000243  00000+0  00000+0 0  9992", "line2": "2 32388   2.1009  83.0433 0005064 182.7670 186.6364  1.00271485 65873"}}, "geometry": {"type": "Point", "coordinates": [-66.31184091075826, -1.0900645918010394]}}, {"type": "Feature", "properties": {"norad_id": 32729, "name": "DIRECTV 11", "group": "intelsat", "lat": 0.00784103449379705, "lon": -91.735045099523, "alt_km": 35786.29218459554, "timestamp": "2025-12-05T19:30:25.234924+00:00", "meta": {"OBJECT_NAME": "DIRECTV 11", "OBJECT_ID": "2008-013A", "EPOCH": "2025-12-04T23:31:39.011232", "MEAN_MOTION": 1.00272577, "ECCENTRICITY": 2.01e-05, "INCLINATION": 0.0165, "RA_OF_ASC_NODE": 145.0638, "ARG_OF_PERICENTER": 3.9969, "MEAN_ANOMALY": 178.7018, "EPHEMERIS_TYPE": 0, "CLASSIFICATION_TYPE": "U", "NORAD_CAT_ID": 32729, "ELEMENT_SET_NO": 999, "REV_AT_EPOCH": 4364, "BSTAR": 0, "MEAN_MOTION_DOT": -1.13e-06, "MEAN_MOTION_DDOT": 0}, "tle": {"line1": "1 32729U 08013A   25338.98031263 -.00000113  00000+0  00000+0 0  9992", "line2": "2 32729   0.0165 145.0638 0000201   3.9969 178.7018  1.00272577 43643"}}, "geometry": {"type": "Point", "coordinates": [-91.735045099523, 0.00784103449379705]}}, {"type": "Feature", "properties": {"norad_id": 32951, "name": "GALAXY 18 (G-18)", "group": "intelsat", "lat": -0.032673471349687726, "lon": -115.56008910196465, "alt_km": 35772.77332808658, "timestamp": "2025-12-05T19:30:25.234936+00:00", "meta": {"OBJECT_NAME": "GALAXY 18 (G-18)", "OBJECT_ID": "2008-024A", "EPOCH": "2025-12-05T06:15:46.548288", "MEAN_MOTION": 1.00269571, "ECCENTRICITY": 0.00033352, "INCLINATION": 0.0153, "RA_OF_ASC_NODE": 14.1824, "ARG_OF_PERICENTER": 240.7415, "MEAN_ANOMALY": 150.3372, "EPHEMERIS_TYPE": 0, "CLASSIFICATION_TYPE": "U", "NORAD_CAT_ID": 32951, "ELEMENT_SET_NO": 999, "REV_AT_EPOCH": 4390, "BSTAR": 0, "MEAN_MOTION_DOT": 3.7e-07, "MEAN_MOTION_DDOT": 0}, "tle": {"line1": "1 32951U 08024A   25339.26095542  .00000037  00000+0  00000+0 0  9997", "line2": "2 32951   0.0153  14.1824 0003335 240.7415 150.3372  1.00269571 43906"}}, "geometry": {"type": "Point", "coordinates": [-115.56008910196465, -0.032673471349687726]}}]}